{
  "norad_id": 69001,
  "name": "CAS500-2 RIDESHARE OBJECT X",
  "history": [
    {
      "epoch": "2026-05-09T20:00:04.000032Z",
      "apogee_km": 599.9446949725561,
      "perigee_km": 592.8641405252574,
      "latitude_deg": -44.99380772707784,
      "longitude_deg": -132.9080369874006,
      "height_km": 612.2149908597205,
      "semi_major_axis_km": 6974.5414177489065,
      "eccentricity": 0.0005076,
      "inclination_deg": 97.69,
      "raan_deg": 27.0378,
      "arg_perigee_deg": 251.3894,
      "mean_anomaly_deg": 63.3127,
      "mean_motion_rev_day": 14.90490717
    }
  ]
}