CAS500-2 RIDESHARE OBJE*
1 69001U 26100X   26129.83337963 -.00062415  00000+0 -64479-2 0  9998
2 69001  97.6900  27.0378 0005076 251.3894  63.3127 14.90490717  1304
